*******************************************************************************
 Revised: July 31, 2013             Moon / (Earth)                          301
 
 GEOPHYSICAL DATA (updated 2018-Aug-15):
  Vol. mean radius, km  = 1737.53+-0.03    Mass, x10^22 kg       =    7.349
  Radius (gravity), km  = 1738.0           Surface emissivity    =    0.92
  Radius (IAU), km      = 1737.4           GM, km^3/s^2          = 4902.800066
  Density, g/cm^3       =    3.3437        GM 1-sigma, km^3/s^2  =  +-0.0001  
  V(1,0)                =   +0.21          Surface accel., m/s^2 =    1.62
  Earth/Moon mass ratio = 81.3005690769    Farside crust. thick. = ~80 - 90 km
  Mean crustal density  = 2.97+-.07 g/cm^3 Nearside crust. thick.= 58+-8 km 
  Heat flow, Apollo 15  = 3.1+-.6 mW/m^2   Mean angular diameter = 31'05.2"
  Heat flow, Apollo 17  = 2.2+-.5 mW/m^2   Sid. rot. rate, rad/s = 0.0000026617
  Geometric Albedo      = 0.12             Mean solar day        = 29.5306 d
  Obliquity to orbit    = 6.67 deg         Orbit period          = 27.321582 d
  Semi-major axis, a    = 384400 km        Eccentricity          = 0.05490
  Mean motion, rad/s    = 2.6616995x10^-6  Inclination           = 5.145 deg
  Apsidal period        = 3231.50 d        Nodal period          = 6798.38 d
                                 Perihelion  Aphelion    Mean
  Solar Constant (W/m^2)         1414+-7     1323+-7     1368+-7
  Maximum Planetary IR (W/m^2)   1314        1226        1268
  Minimum Planetary IR (W/m^2)      5.2         5.2         5.2
********************************************************************************


*******************************************************************************
Ephemeris / WWW_USER Tue Apr 14 09:57:20 2026 Pasadena, USA      / Horizons    
*******************************************************************************
Target body name: Moon (301)                      {source: DE441}
Center body name: Earth (399)                     {source: DE441}
Center-site name: GEOCENTRIC
*******************************************************************************
Start time      : A.D. 2025-Jan-01 00:00:00.0000 UT      
Stop  time      : A.D. 2032-Jan-01 00:00:00.0000 UT      
Step-size       : 60 minutes
*******************************************************************************
Target pole/equ : MOON_ME                         {East-longitude positive}
Target radii    : 1737.4, 1737.4, 1737.4 km       {Equator_a, b, pole_c}       
Center geodetic : 0.0, 0.0, -6378.137             {E-lon(deg),Lat(deg),Alt(km)}
Center cylindric: 0.0, 0.0, 0.0                   {E-lon(deg),Dxy(km),Dz(km)}
Center pole/equ : ITRF93                          {East-longitude positive}
Center radii    : 6378.137, 6378.137, 6356.752 km {Equator_a, b, pole_c}       
Target primary  : Earth
Vis. interferer : MOON (R_eq= 1737.400) km        {source: DE441}
Rel. light bend : Sun                             {source: DE441}
Rel. lght bnd GM: 1.3271E+11 km^3/s^2                                          
Atmos refraction: NO (AIRLESS)
RA format       : DEG
Time format     : CAL 
Calendar mode   : Mixed Julian/Gregorian
EOP file        : eop.260413.p260710                                           
EOP coverage    : DATA-BASED 1962-JAN-20 TO 2026-APR-13. PREDICTS-> 2026-JUL-09
Units conversion: 1 au= 149597870.700 km, c= 299792.458 km/s, 1 day= 86400.0 s 
Table cut-offs 1: Elevation (-90.0deg=NO ),Airmass (>38.000=NO), Daylight (NO )
Table cut-offs 2: Solar elongation (  0.0,180.0=NO ),Local Hour Angle( 0.0=NO )
Table cut-offs 3: RA/DEC angular rate (     0.0=NO )                           
Table format    : Comma Separated Values (spreadsheet)
*******************************************************************************
 Date__(UT)__HR:MN, , ,    ObsEcLon,   ObsEcLat,
************************************************
$$SOE
 2029-Jul-04 20:00, , ,  24.9819296,  4.9519207,
 2029-Jul-04 21:00, , ,  25.4768137,  4.9359806,
 2029-Jul-04 22:00, , ,  25.9717178,  4.9196728,
 2029-Jul-04 23:00, , ,  26.4666474,  4.9029984,
 2029-Jul-05 00:00, , ,  26.9616080,  4.8859582,
 2029-Jul-05 01:00, , ,  27.4566051,  4.8685532,
 2029-Jul-05 02:00, , ,  27.9516442,  4.8507845,
 2029-Jul-05 03:00, , ,  28.4467308,  4.8326530,
 2029-Jul-05 04:00, , ,  28.9418702,  4.8141596,
 2029-Jul-05 05:00, , ,  29.4370680,  4.7953055,
 2029-Jul-05 06:00, , ,  29.9323297,  4.7760916,
 2029-Jul-05 07:00, , ,  30.4276605,  4.7565190,
 2029-Jul-05 08:00, , ,  30.9230660,  4.7365887,
 2029-Jul-05 09:00, , ,  31.4185515,  4.7163018,
 2029-Jul-05 10:00, , ,  31.9141225,  4.6956593,
 2029-Jul-05 11:00, , ,  32.4097843,  4.6746624,
 2029-Jul-05 12:00, , ,  32.9055422,  4.6533121,
 2029-Jul-05 13:00, , ,  33.4014016,  4.6316096,
 2029-Jul-05 14:00, , ,  33.8973679,  4.6095560,
 2029-Jul-05 15:00, , ,  34.3934463,  4.5871524,
 2029-Jul-05 16:00, , ,  34.8896422,  4.5644000,
 2029-Jul-05 17:00, , ,  35.3859608,  4.5412999,
 2029-Jul-05 18:00, , ,  35.8824074,  4.5178533,
 2029-Jul-05 19:00, , ,  36.3789872,  4.4940615,
 2029-Jul-05 20:00, , ,  36.8757054,  4.4699256,
 2029-Jul-05 21:00, , ,  37.3725674,  4.4454469,
 2029-Jul-05 22:00, , ,  37.8695782,  4.4206265,
 2029-Jul-05 23:00, , ,  38.3667430,  4.3954659,
 2029-Jul-06 00:00, , ,  38.8640670,  4.3699662,
 2029-Jul-06 01:00, , ,  39.3615554,  4.3441287,
 2029-Jul-06 02:00, , ,  39.8592131,  4.3179547,
 2029-Jul-06 03:00, , ,  40.3570454,  4.2914456,
 2029-Jul-06 04:00, , ,  40.8550572,  4.2646027,
 2029-Jul-06 05:00, , ,  41.3532536,  4.2374274,
 2029-Jul-06 06:00, , ,  41.8516397,  4.2099210,
 2029-Jul-06 07:00, , ,  42.3502204,  4.1820849,
 2029-Jul-06 08:00, , ,  42.8490008,  4.1539205,
 2029-Jul-06 09:00, , ,  43.3479857,  4.1254293,
 2029-Jul-06 10:00, , ,  43.8471801,  4.0966127,
 2029-Jul-06 11:00, , ,  44.3465889,  4.0674722,
 2029-Jul-06 12:00, , ,  44.8462170,  4.0380092,
 2029-Jul-06 13:00, , ,  45.3460692,  4.0082253,
 2029-Jul-06 14:00, , ,  45.8461503,  3.9781219,
 2029-Jul-06 15:00, , ,  46.3464652,  3.9477007,
 2029-Jul-06 16:00, , ,  46.8470187,  3.9169632,
 2029-Jul-06 17:00, , ,  47.3478153,  3.8859109,
 2029-Jul-06 18:00, , ,  47.8488600,  3.8545455,
 2029-Jul-06 19:00, , ,  48.3501573,  3.8228686,
 2029-Jul-06 20:00, , ,  48.8517119,  3.7908819,
 2029-Jul-06 21:00, , ,  49.3535285,  3.7585869,
 2029-Jul-06 22:00, , ,  49.8556116,  3.7259855,
 2029-Jul-06 23:00, , ,  50.3579659,  3.6930792,
 2029-Jul-07 00:00, , ,  50.8605957,  3.6598700,
 2029-Jul-07 01:00, , ,  51.3635058,  3.6263594,
 2029-Jul-07 02:00, , ,  51.8667005,  3.5925493,
 2029-Jul-07 03:00, , ,  52.3701842,  3.5584415,
 2029-Jul-07 04:00, , ,  52.8739615,  3.5240379,
 2029-Jul-07 05:00, , ,  53.3780366,  3.4893402,
 2029-Jul-07 06:00, , ,  53.8824139,  3.4543503,
 2029-Jul-07 07:00, , ,  54.3870978,  3.4190702,
 2029-Jul-07 08:00, , ,  54.8920924,  3.3835018,
 2029-Jul-07 09:00, , ,  55.3974021,  3.3476470,
 2029-Jul-07 10:00, , ,  55.9030310,  3.3115079,
 2029-Jul-07 11:00, , ,  56.4089833,  3.2750863,
 2029-Jul-07 12:00, , ,  56.9152632,  3.2383843,
 2029-Jul-07 13:00, , ,  57.4218747,  3.2014041,
 2029-Jul-07 14:00, , ,  57.9288219,  3.1641476,
 2029-Jul-07 15:00, , ,  58.4361088,  3.1266171,
 2029-Jul-07 16:00, , ,  58.9437395,  3.0888145,
 2029-Jul-07 17:00, , ,  59.4517178,  3.0507421,
 2029-Jul-07 18:00, , ,  59.9600477,  3.0124021,
 2029-Jul-07 19:00, , ,  60.4687330,  2.9737967,
 2029-Jul-07 20:00, , ,  60.9777776,  2.9349282,
 2029-Jul-07 21:00, , ,  61.4871852,  2.8957987,
 2029-Jul-07 22:00, , ,  61.9969597,  2.8564107,
 2029-Jul-07 23:00, , ,  62.5071046,  2.8167665,
 2029-Jul-08 00:00, , ,  63.0176238,  2.7768684,
 2029-Jul-08 01:00, , ,  63.5285207,  2.7367188,
 2029-Jul-08 02:00, , ,  64.0397991,  2.6963202,
 2029-Jul-08 03:00, , ,  64.5514624,  2.6556750,
 2029-Jul-08 04:00, , ,  65.0635142,  2.6147857,
 2029-Jul-08 05:00, , ,  65.5759578,  2.5736547,
 2029-Jul-08 06:00, , ,  66.0887967,  2.5322848,
 2029-Jul-08 07:00, , ,  66.6020343,  2.4906784,
 2029-Jul-08 08:00, , ,  67.1156739,  2.4488381,
 2029-Jul-08 09:00, , ,  67.6297188,  2.4067666,
 2029-Jul-08 10:00, , ,  68.1441722,  2.3644666,
 2029-Jul-08 11:00, , ,  68.6590373,  2.3219407,
 2029-Jul-08 12:00, , ,  69.1743172,  2.2791918,
 2029-Jul-08 13:00, , ,  69.6900151,  2.2362225,
 2029-Jul-08 14:00, , ,  70.2061339,  2.1930357,
 2029-Jul-08 15:00, , ,  70.7226767,  2.1496343,
 2029-Jul-08 16:00, , ,  71.2396465,  2.1060210,
 2029-Jul-08 17:00, , ,  71.7570461,  2.0621988,
 2029-Jul-08 18:00, , ,  72.2748784,  2.0181707,
 2029-Jul-08 19:00, , ,  72.7931462,  1.9739396,
 2029-Jul-08 20:00, , ,  73.3118523,  1.9295084,
 2029-Jul-08 21:00, , ,  73.8309994,  1.8848803,
 2029-Jul-08 22:00, , ,  74.3505901,  1.8400584,
 2029-Jul-08 23:00, , ,  74.8706270,  1.7950456,
 2029-Jul-09 00:00, , ,  75.3911127,  1.7498452,
 2029-Jul-09 01:00, , ,  75.9120498,  1.7044604,
 2029-Jul-09 02:00, , ,  76.4334407,  1.6588943,
 2029-Jul-09 03:00, , ,  76.9552877,  1.6131502,
 2029-Jul-09 04:00, , ,  77.4775933,  1.5672313,
 2029-Jul-09 05:00, , ,  78.0003597,  1.5211411,
 2029-Jul-09 06:00, , ,  78.5235892,  1.4748828,
 2029-Jul-09 07:00, , ,  79.0472839,  1.4284598,
 2029-Jul-09 08:00, , ,  79.5714462,  1.3818755,
 2029-Jul-09 09:00, , ,  80.0960779,  1.3351334,
 2029-Jul-09 10:00, , ,  80.6211812,  1.2882370,
 2029-Jul-09 11:00, , ,  81.1467580,  1.2411898,
 2029-Jul-09 12:00, , ,  81.6728104,  1.1939954,
 2029-Jul-09 13:00, , ,  82.1993400,  1.1466573,
 2029-Jul-09 14:00, , ,  82.7263489,  1.0991792,
 2029-Jul-09 15:00, , ,  83.2538386,  1.0515647,
 2029-Jul-09 16:00, , ,  83.7818111,  1.0038176,
 2029-Jul-09 17:00, , ,  84.3102678,  0.9559415,
 2029-Jul-09 18:00, , ,  84.8392104,  0.9079402,
 2029-Jul-09 19:00, , ,  85.3686404,  0.8598176,
 2029-Jul-09 20:00, , ,  85.8985594,  0.8115775,
 2029-Jul-09 21:00, , ,  86.4289687,  0.7632237,
 2029-Jul-09 22:00, , ,  86.9598698,  0.7147602,
 2029-Jul-09 23:00, , ,  87.4912639,  0.6661908,
 2029-Jul-10 00:00, , ,  88.0231524,  0.6175196,
